STARLINK-32874          
1 62954U 25029G   26068.76809396  .00026932  00000+0  91755-3 0  9995
2 62954  53.1609 229.6752 0001046  77.9449 282.1669 15.30221256 61374
2025-313BD              
1 67299U 25313BD  26068.62968741  .00081010  00000+0  27634-2 0  9995
2 67299  97.3970 145.2850 0007287 333.4514  26.6352 15.30002360 10838
